     2.100          NAVIGATION                              RINEX VERSION / TYPE
fic2rin                                 01/29/2011 00:12:37 PGM / RUN BY / DATE
                                                            END OF HEADER
13 11  1 28 22  0  0.0  .284352805465D-03 -.125055521494D-11  .000000000000D+00
     .790000000000D+02  .865937500000D+02  .391873465960D-08  .266848693047D+01
     .453554093838D-05  .443892355543D-02  .418350100517D-05  .515365488052D+04
     .511200000000D+06  .707805156708D-07 -.285009023953D+01 -.726431608200D-07
     .991136911436D+00  .312093750000D+03  .178677003739D+01 -.792783022595D-08
     .842892252703D-10  .100000000000D+01  .162000000000D+04  .000000000000D+00
     .240000000000D+01  .000000000000D+00 -.111758708954D-07  .790000000000D+02
     .504006000000D+06  .400000000000D+01
14 11  1 28 22  0  0.0  .127297826111D-03  .284217094304D-11  .000000000000D+00
     .109000000000D+03  .757500000000D+02  .400659546221D-08  .262125763555D+01
     .389851629734D-05  .563712732401D-02  .399351119995D-05  .515362640190D+04
     .511200000000D+06  .689178705215D-07 -.287349434528D+01 -.100582838058D-06
     .984246486823D+00  .312718750000D+03 -.207722322320D+01 -.786104172966D-08
     .610739725475D-10  .100000000000D+01  .162000000000D+04  .000000000000D+00
     .340000000000D+01  .000000000000D+00 -.884756445885D-08  .109000000000D+03
     .504006000000D+06  .400000000000D+01
15 11  1 28 22  0  0.0 -.156711321324D-03  .363797880709D-11  .000000000000D+00
     .890000000000D+02  .867500000000D+02  .477805616808D-08  .228179689011D+01
     .464543700218D-05  .330173794646D-02  .474788248539D-05  .515356717682D+04
     .511200000000D+06 -.186264514923D-07 -.294540196224D+01  .141561031342D-06
     .951547505762D+00  .283375000000D+03 -.141591978789D+00 -.829927426951D-08
     .621454457501D-10  .100000000000D+01  .162000000000D+04  .000000000000D+00
     .240000000000D+01  .000000000000D+00 -.977888703346D-08  .890000000000D+02
     .504006000000D+06  .400000000000D+01
16 11  1 28 22  0  0.0 -.146337319165D-03 -.295585778076D-11  .000000000000D+00
     .640000000000D+02 -.852812500000D+02  .396337937637D-08 -.213059696277D+01
    -.442005693913D-05  .609136838466D-02  .975467264652D-05  .515374330330D+04
     .511200000000D+06 -.875443220139D-07 -.800628147090D+00 -.111758708954D-07
     .974891383179D+00  .201093750000D+03 -.170743651221D+00 -.771282126996D-08
     .258225041824D-09  .100000000000D+01  .162000000000D+04  .000000000000D+00
     .240000000000D+01  .000000000000D+00 -.977888703346D-08  .640000000000D+02
     .504006000000D+06  .400000000000D+01
17 11  1 28 22  0  0.0  .182366464287D-03  .568434188608D-12  .000000000000D+00
     .510000000000D+02 -.118437500000D+02  .447125767440D-08  .308781418456D+01
    -.568106770515D-06  .601315684617D-02  .835955142975D-05  .515370556068D+04
     .511200000000D+06 -.931322574615D-08  .241912390679D+00 -.856816768646D-07
     .961216523829D+00  .217531250000D+03 -.246811237095D+01 -.776389482595D-08
     .441446959466D-09  .100000000000D+01  .162000000000D+04  .000000000000D+00
     .240000000000D+01  .000000000000D+00 -.102445483208D-07  .510000000000D+02
     .504006000000D+06  .400000000000D+01
18 11  1 28 22  0  0.0  .118493568152D-03  .204636307899D-11  .000000000000D+00
     .890000000000D+02  .685000000000D+02  .495806366611D-08 -.186689025993D+01
     .351294875145D-05  .118591060163D-01  .873394310474D-05  .515376197243D+04
     .511200000000D+06  .178813934326D-06  .232716910563D+01 -.856816768646D-07
     .934207107670D+00  .195562500000D+03 -.227533040599D+01 -.799033282943D-08
    -.149649090628D-09  .100000000000D+01  .162000000000D+04  .000000000000D+00
     .340000000000D+01  .000000000000D+00 -.107102096081D-07  .890000000000D+02
     .504006000000D+06  .400000000000D+01
22 11  1 28 22  0  0.0  .154288019985D-03 -.568434188608D-12  .000000000000D+00
     .520000000000D+02  .709062500000D+02  .504378152232D-08 -.271377709822D+01
     .360049307346D-05  .536850816570D-02  .875443220139D-05  .515371648026D+04
     .511200000000D+06  .856816768646D-07  .233155398606D+01 -.186264514923D-07
     .931903115562D+00  .195468750000D+03 -.194344526187D+01 -.807176479283D-08
    -.220723479733D-09  .100000000000D+01  .162000000000D+04  .000000000000D+00
     .240000000000D+01  .000000000000D+00 -.172294676304D-07  .520000000000D+02
     .504006000000D+06  .400000000000D+01
23 11  1 28 22  0  0.0  .329407397658D-03 -.227373675443D-11  .000000000000D+00
     .540000000000D+02  .936875000000D+02  .455554689967D-08  .186949063193D+01
     .495836138725D-05  .694018125068D-02  .412203371525D-05  .515359962654D+04
     .511200000000D+06  .111758708954D-07 -.291681130572D+01  .104308128357D-06
     .965959664120D+00  .304312500000D+03  .313077013339D+01 -.826891586211D-08
     .350014579512D-10  .100000000000D+01  .162000000000D+04  .000000000000D+00
     .240000000000D+01  .000000000000D+00 -.200234353542D-07  .540000000000D+02
     .504006000000D+06  .400000000000D+01
24 11  1 28 22  0  0.0  .360554084182D-03  .329691829393D-11  .000000000000D+00
     .460000000000D+02  .337500000000D+01  .503949562951D-08  .122123951410D+01
     .137835741043D-06  .580773211550D-02  .716187059879D-05  .515372242928D+04
     .511200000000D+06  .119209289551D-06  .131453667573D+01  .577419996262D-07
     .948217257603D+00  .234531250000D+03 -.317979139325D+00 -.811605235187D-08
    -.319299014371D-09  .100000000000D+01  .162000000000D+04  .000000000000D+00
     .340000000000D+01  .000000000000D+00 -.139698386192D-08  .460000000000D+02
     .504006000000D+06  .400000000000D+01
25 11  1 28 22  0  0.0 -.658580102026D-04 -.170530256582D-11  .000000000000D+00
     .820000000000D+02 -.820000000000D+02  .427660670926D-08 -.203392779106D+01
    -.430084764957D-05  .401491881348D-03  .914186239243D-05  .515371052170D+04
     .511200000000D+06  .465661287308D-07 -.846782069952D+00 -.521540641785D-07
     .962541996366D+00  .206687500000D+03  .137020184533D+01 -.787318509262D-08
     .500020827875D-10  .100000000000D+01  .162000000000D+04  .100000000000D+01
     .240000000000D+01  .000000000000D+00  .465661287308D-08  .820000000000D+02
     .504006000000D+06  .400000000000D+01
26 11  1 28 22  0  0.0 -.107456929982D-03 -.932232069317D-11  .000000000000D+00
     .840000000000D+02  .855937500000D+02  .404409702430D-08  .157826089555D+01
     .415369868279D-05  .201486326987D-01  .511668622494D-05  .515364308167D+04
     .511200000000D+06 -.452622771263D-06 -.285442198238D+01 -.238418579102D-06
     .988797683484D+00  .298031250000D+03  .112042367183D+01 -.802604860285D-08
     .921466954226D-10  .100000000000D+01  .162000000000D+04  .000000000000D+00
     .240000000000D+01  .000000000000D+00 -.651925802231D-08  .840000000000D+02
     .504006000000D+06  .400000000000D+01
27 11  1 28 22  0  0.0  .231454148889D-03  .363797880709D-11  .000000000000D+00
     .108000000000D+03 -.440000000000D+02  .413302930012D-08  .263053939433D+01
    -.220723450184D-05  .218552821316D-01  .222399830818D-05  .515373035622D+04
     .511200000000D+06  .378116965294D-06 -.192832174643D+01 -.558793544769D-07
     .980169603313D+00  .341093750000D+03 -.130553722356D+01 -.781461122421D-08
    -.242510101519D-09  .100000000000D+01  .162000000000D+04  .000000000000D+00
     .340000000000D+01  .000000000000D+00 -.419095158577D-08  .108000000000D+03
     .504006000000D+06  .400000000000D+01
28 11  1 28 22  0  0.0  .170138664544D-04  .204636307899D-11  .000000000000D+00
     .610000000000D+02 -.992500000000D+02  .386980405001D-08 -.258859101277D+01
    -.512972474098D-05  .168702148367D-01  .883266329765D-05  .515369493675D+04
     .511200000000D+06  .214204192162D-06 -.793231472360D+00 -.353902578354D-07
     .973173216616D+00  .212500000000D+03 -.191480558151D+01 -.741388024644D-08
     .243224416988D-09  .100000000000D+01  .162000000000D+04  .000000000000D+00
     .240000000000D+01  .000000000000D+00 -.107102096081D-07  .610000000000D+02
     .504006000000D+06  .400000000000D+01
29 11  1 28 22  0  0.0  .181369949132D-03  .272848410532D-11  .000000000000D+00
     .490000000000D+02 -.350000000000D+01  .462626413104D-08 -.435965363730D+00
    -.968575477600D-07  .257002899889D-02  .783801078796D-05  .515358013916D+04
     .511200000000D+06 -.558793544769D-07  .250252305247D+00  .111758708954D-07
     .961617778852D+00  .229593750000D+03 -.126358840605D+01 -.800069040373D-08
     .378944355982D-09  .100000000000D+01  .162000000000D+04  .000000000000D+00
     .240000000000D+01  .000000000000D+00 -.884756445885D-08  .490000000000D+02
     .504006000000D+06  .400000000000D+01
30 11  1 28 22  0  0.0  .317364465445D-03  .318323145621D-11  .000000000000D+00
     .550000000000D+02 -.929687500000D+02  .423196199249D-08  .278393078905D+01
    -.476278364658D-05  .125576005084D-01  .913813710213D-05  .515364273262D+04
     .511200000000D+06  .100582838058D-06 -.875587298514D+00 -.111758708954D-07
     .959152222071D+00  .200937500000D+03  .151617772293D+01 -.766317634491D-08
     .116790579082D-09  .100000000000D+01  .162000000000D+04  .000000000000D+00
     .340000000000D+01  .000000000000D+00 -.791624188423D-08  .550000000000D+02
     .504006000000D+06  .400000000000D+01
31 11  1 28 22  0  0.0  .350535847247D-04  .443378667114D-11  .000000000000D+00
     .760000000000D+02 -.615312500000D+02  .423553356983D-08  .185555967414D+00
    -.327825546265D-05  .787852134090D-02  .363588333130D-05  .515358607864D+04
     .511200000000D+06 -.521540641785D-07 -.187261838443D+01 -.726431608200D-07
     .978751055539D+00  .320468750000D+03 -.100989065663D+01 -.826070123422D-08
    -.174650132022D-09  .100000000000D+01  .162000000000D+04  .000000000000D+00
     .240000000000D+01  .000000000000D+00 -.130385160446D-07  .760000000000D+02
     .504006000000D+06  .400000000000D+01
